[Satellite]
VERSION=1.1
NAME=IRIDIUM 120 [+]
NICKNAME=IRIDIUM 120 [+]
TLE1=1 42805U 17039C   20157.71166071  .00000074  00000-0  19290-4 0  9999
TLE2=2 42805  86.3968 162.5498 0002457  78.5819 281.5652 14.34217501155493
STATUS=0
